{"type": "FeatureCollection", "features": [ {"type": "Feature", "properties": {"norad_id": 30759, "name": "FENGYUN 1C DEB", "group": "fengyun-1c-debris", "lat": -18.986737198239165, "lon": 107.52768994208871, "alt_km": 721.4049304001064, "timestamp": "2025-12-21T14:40:48.195175+00:00", "meta": {"OBJECT_NAME": "FENGYUN 1C DEB", "OBJECT_ID": "1999-025ATV", "EPOCH": "2025-12-21T06:46:02.425728", "MEAN_MOTION": 14.54663869, "ECCENTRICITY": 0.00087265, "INCLINATION": 99.2584, "RA_OF_ASC_NODE": 103.9457, "ARG_OF_PERICENTER": 144.8157, "MEAN_ANOMALY": 270.5169, "EPHEMERIS_TYPE": 0, "CLASSIFICATION_TYPE": "U", "NORAD_CAT_ID": 30759, "ELEMENT_SET_NO": 999, "REV_AT_EPOCH": 97779, "BSTAR": 0.001695519, "MEAN_MOTION_DOT": 7.205e-05, "MEAN_MOTION_DDOT": 0}, "tle": {"line1": "1 30759U 99025ATV 25355.28197252  .00007205  00000+0  16955-2 0  9996", "line2": "2 30759  99.2584 103.9457 0008726 144.8157 270.5169 14.54663869977796"}}, "geometry": {"type": "Point", "coordinates": [107.52768994208871, -18.986737198239165]}}, {"type": "Feature", "properties": {"norad_id": 30760, "name": "FENGYUN 1C DEB", "group": "fengyun-1c-debris", "lat": -60.51417440703329, "lon": 156.10779298086743, "alt_km": 874.0833357933943, "timestamp": "2025-12-21T14:40:48.195190+00:00", "meta": {"OBJECT_NAME": "FENGYUN 1C DEB", "OBJECT_ID": "1999-025ATW", "EPOCH": "2025-12-21T06:41:35.020320", "MEAN_MOTION": 14.05187445, "ECCENTRICITY": 0.00524591, "INCLINATION": 98.8225, "RA_OF_ASC_NODE": 351.7261, "ARG_OF_PERICENTER": 319.3759, "MEAN_ANOMALY": 40.35, "EPHEMERIS_TYPE": 0, "CLASSIFICATION_TYPE": "U", "NORAD_CAT_ID": 30760, "ELEMENT_SET_NO": 999, "REV_AT_EPOCH": 96342, "BSTAR": 0.00033386986, "MEAN_MOTION_DOT": 5.03e-06, "MEAN_MOTION_DDOT": 0}, "tle": {"line1": "1 30760U 99025ATW 25355.27887755  .00000503  00000+0  33387-3 0  9994", "line2": "2 30760  98.8225 351.7261 0052459 319.3759  40.3500 14.05187445963424"}}, "geometry": {"type": "Point", "coordinates": [156.10779298086743, -60.51417440703329]}}, {"type": "Feature", "properties": {"norad_id": 30761, "name": "FENGYUN 1C DEB", "group": "fengyun-1c-debris", "lat": -66.14778821480411, "lon": 81.12970761360641, "alt_km": 733.3451552022416, "timestamp": "2025-12-21T14:40:48.195202+00:00", "meta": {"OBJECT_NAME": "FENGYUN 1C DEB", "OBJECT_ID": "1999-025ATX", "EPOCH": "2025-12-20T17:27:10.446336", "MEAN_MOTION": 14.3581681, "ECCENTRICITY": 0.00839529, "INCLINATION": 98.9667, "RA_OF_ASC_NODE": 281.1328, "ARG_OF_PERICENTER": 290.3548, "MEAN_ANOMALY": 68.8632, "EPHEMERIS_TYPE": 0, "CLASSIFICATION_TYPE": "U", "NORAD_CAT_ID": 30761, "ELEMENT_SET_NO": 999, "REV_AT_EPOCH": 97856, "BSTAR": 0.00063139698, "MEAN_MOTION_DOT": 1.854e-05, "MEAN_MOTION_DDOT": 0}, "tle": {"line1": "1 30761U 99025ATX 25354.72720424  .00001854  00000+0  63140-3 0  9993", "line2": "2 30761  98.9667 281.1328 0083952 290.3548  68.8632 14.35816810978562"}}, "geometry": {"type": "Point", "coordinates": [81.12970761360641, -66.14778821480411]}}, {"type": "Feature", "properties": {"norad_id": 30762, "name": "FENGYUN 1C DEB", "group": "fengyun-1c-debris", "lat": -58.739699663776804, "lon": 1.0289616230040666, "alt_km": 781.8795944066078, "timestamp": "2025-12-21T14:40:48.195212+00:00", "meta": {"OBJECT_NAME": "FENGYUN 1C DEB", "OBJECT_ID": "1999-025ATY", "EPOCH": "2025-12-19T21:52:54.283296", "MEAN_MOTION": 13.98105289, "ECCENTRICITY": 0.0197318, "INCLINATION": 98.8754, "RA_OF_ASC_NODE": 344.4685, "ARG_OF_PERICENTER": 275.2348, "MEAN_ANOMALY": 112.4655, "EPHEMERIS_TYPE": 0, "CLASSIFICATION_TYPE": "U", "NORAD_CAT_ID": 30762, "ELEMENT_SET_NO": 999, "REV_AT_EPOCH": 95738, "BSTAR": 0.00049725, "MEAN_MOTION_DOT": 7.9e-06, "MEAN_MOTION_DDOT": 0}, "tle": {"line1": "1 30762U 99025ATY 25353.91173939  .00000790  00000+0  49725-3 0  9998", "line2": "2 30762  98.8754 344.4685 0197318 275.2348 112.4655 13.98105289957387"}}, "geometry": {"type": "Point", "coordinates": [1.0289616230040666, -58.739699663776804]}}, {"type": "Feature", "properties": {"norad_id": 30763, "name": "FENGYUN 1C DEB", "group": "fengyun-1c-debris", "lat": 30.46924655277184, "lon": 62.34918556304087, "alt_km": 701.5303275445012, "timestamp": "2025-12-21T14:40:48.195222+00:00", "meta": {"OBJECT_NAME": "FENGYUN 1C DEB", "OBJECT_ID": "1999-025ATZ", "EPOCH": "2025-12-20T11:11:31.600608", "MEAN_MOTION": 14.61373155, "ECCENTRICITY": 0.00241542, "INCLINATION": 98.8929, "RA_OF_ASC_NODE": 66.4042, "ARG_OF_PERICENTER": 246.2006, "MEAN_ANOMALY": 242.5596, "EPHEMERIS_TYPE": 0, "CLASSIFICATION_TYPE": "U", "NORAD_CAT_ID": 30763, "ELEMENT_SET_NO": 999, "REV_AT_EPOCH": 97257, "BSTAR": 0.0025346685, "MEAN_MOTION_DOT": 0.00012552, "MEAN_MOTION_DDOT": 0}, "tle": {"line1": "1 30763U 99025ATZ 25354.46633797  .00012552  00000+0  25347-2 0  9995", "line2": "2 30763  98.8929  66.4042 0024154 246.2006 242.5596 14.61373155972573"}}, "geometry": {"type": "Point", "coordinates": [62.34918556304087, 30.46924655277184]}}, {"type": "Feature", "properties": {"norad_id": 30764, "name": "FENGYUN 1C DEB", "group": "fengyun-1c-debris", "lat": -80.74206983256438, "lon": 39.33251460136164, "alt_km": 520.0687683015567, "timestamp": "2025-12-21T14:40:48.195232+00:00", "meta": {"OBJECT_NAME": "FENGYUN 1C DEB", "OBJECT_ID": "1999-025AUA", "EPOCH": "2025-12-20T21:47:41.035776", "MEAN_MOTION": 15.29533569, "ECCENTRICITY": 0.0076476, "INCLINATION": 98.7795, "RA_OF_ASC_NODE": 327.0342, "ARG_OF_PERICENTER": 142.1989, "MEAN_ANOMALY": 218.4654, "EPHEMERIS_TYPE": 0, "CLASSIFICATION_TYPE": "U", "NORAD_CAT_ID": 30764, "ELEMENT_SET_NO": 999, "REV_AT_EPOCH": 1347, "BSTAR": 0.00066855, "MEAN_MOTION_DOT": 0.00020855, "MEAN_MOTION_DDOT": 0}, "tle": {"line1": "1 30764U 99025AUA 25354.90811384  .00020855  00000+0  66855-3 0  9990", "line2": "2 30764  98.7795 327.0342 0076476 142.1989 218.4654 15.29533569 13475"}}, "geometry": {"type": "Point", "coordinates": [39.33251460136164, -80.74206983256438]}}, {"type": "Feature", "properties": {"norad_id": 30765, "name": "FENGYUN 1C DEB", "group": "fengyun-1c-debris", "lat": -55.97738233328821, "lon": 54.71653533752535, "alt_km": 874.0250062712066, "timestamp": "2025-12-21T14:40:48.195242+00:00", "meta": {"OBJECT_NAME": "FENGYUN 1C DEB", "OBJECT_ID": "1999-025AUB", "EPOCH": "2025-12-21T01:40:11.361216", "MEAN_MOTION": 14.14734916, "ECCENTRICITY": 0.00686268, "INCLINATION": 98.7872, "RA_OF_ASC_NODE": 40.9375, "ARG_OF_PERICENTER": 185.5739, "MEAN_ANOMALY": 237.4448, "EPHEMERIS_TYPE": 0, "CLASSIFICATION_TYPE": "U", "NORAD_CAT_ID": 30765, "ELEMENT_SET_NO": 999, "REV_AT_EPOCH": 96940, "BSTAR": 0.00058774917, "MEAN_MOTION_DOT": 1.114e-05, "MEAN_MOTION_DDOT": 0}, "tle": {"line1": "1 30765U 99025AUB 25355.06957594  .00001114  00000+0  58775-3 0  9992", "line2": "2 30765  98.7872  40.9375 0068626 185.5739 237.4448 14.14734916969408"}}, "geometry": {"type": "Point", "coordinates": [54.71653533752535, -55.97738233328821]}}, {"type": "Feature", "properties": {"norad_id": 30766, "name": "FENGYUN 1C DEB", "group": "fengyun-1c-debris", "lat": 13.317014620804157, "lon": -6.394450225298032, "alt_km": 812.6071143536055, "timestamp": "2025-12-21T14:40:48.195252+00:00", "meta": {"OBJECT_NAME": "FENGYUN 1C DEB", "OBJECT_ID": "1999-025AUC", "EPOCH": "2025-12-15T07:04:11.928864", "MEAN_MOTION": 14.09535307, "ECCENTRICITY": 0.00836782, "INCLINATION": 98.6724, "RA_OF_ASC_NODE": 349.591, "ARG_OF_PERICENTER": 67.2731, "MEAN_ANOMALY": 309.6105, "EPHEMERIS_TYPE": 0, "CLASSIFICATION_TYPE": "U", "NORAD_CAT_ID": 30766, "ELEMENT_SET_NO": 999, "REV_AT_EPOCH": 62833, "BSTAR": 0.00078621277, "MEAN_MOTION_DOT": 1.379e-05, "MEAN_MOTION_DDOT": 0}, "tle": {"line1": "1 30766U 99025AUC 25349.29458251  .00001379  00000+0  78621-3 0  9992", "line2": "2 30766  98.6724 349.5910 0083678  67.2731 309.6105 14.09535307628332"}}, "geometry": {"type": "Point", "coordinates": [-6.394450225298032, 13.317014620804157]}}, {"type": "Feature", "properties": {"norad_id": 30768, "name": "FENGYUN 1C DEB", "group": "fengyun-1c-debris", "lat": 56.4327679396129, "lon": 72.31230437259846, "alt_km": 710.0052422416566, "timestamp": "2025-12-21T14:40:48.195262+00:00", "meta": {"OBJECT_NAME": "FENGYUN 1C DEB", "OBJECT_ID": "1999-025AUE", "EPOCH": "2025-12-20T17:33:22.014720", "MEAN_MOTION": 14.48003389, "ECCENTRICITY": 0.00244915, "INCLINATION": 98.618, "RA_OF_ASC_NODE": 84.6267, "ARG_OF_PERICENTER": 76.4417, "MEAN_ANOMALY": 75.6465, "EPHEMERIS_TYPE": 0, "CLASSIFICATION_TYPE": "U", "NORAD_CAT_ID": 30768, "ELEMENT_SET_NO": 999, "REV_AT_EPOCH": 97986, "BSTAR": 0.0012175144, "MEAN_MOTION_DOT": 4.494e-05, "MEAN_MOTION_DDOT": 0}, "tle": {"line1": "1 30768U 99025AUE 25354.73150480  .00004494  00000+0  12175-2 0  9994", "line2": "2 30768  98.6180  84.6267 0024491  76.4417  75.6465 14.48003389979862"}}, "geometry": {"type": "Point", "coordinates": [72.31230437259846, 56.4327679396129]}}, {"type": "Feature", "properties": {"norad_id": 30770, "name": "FENGYUN 1C DEB", "group": "fengyun-1c-debris", "lat": -8.864145897261452, "lon": 2.7657435730377684, "alt_km": 844.2879453851965, "timestamp": "2025-12-21T14:40:48.195274+00:00", "meta": {"OBJECT_NAME": "FENGYUN 1C DEB", "OBJECT_ID": "1999-025AUG", "EPOCH": "2025-12-21T06:33:06.056928", "MEAN_MOTION": 14.15693343, "ECCENTRICITY": 0.00127594, "INCLINATION": 98.6542, "RA_OF_ASC_NODE": 1.0759, "ARG_OF_PERICENTER": 259.909, "MEAN_ANOMALY": 165.9733, "EPHEMERIS_TYPE": 0, "CLASSIFICATION_TYPE": "U", "NORAD_CAT_ID": 30770, "ELEMENT_SET_NO": 999, "REV_AT_EPOCH": 97028, "BSTAR": 0.00024022547, "MEAN_MOTION_DOT": 4.29e-06, "MEAN_MOTION_DDOT": 0}, "tle": {"line1": "1 30770U 99025AUG 25355.27298677  .00000429  00000+0  24023-3 0  9998", "line2": "2 30770  98.6542   1.0759 0012759 259.9090 165.9733 14.15693343970282"}}, "geometry": {"type": "Point", "coordinates": [2.7657435730377684, -8.864145897261452]}}]}